FLOCK 4G-15             
1 62678U 25009BX  26068.71779869  .00012647  00000+0  47575-3 0  9991
2 62678  97.4054 151.1927 0003699 316.8208  43.2740 15.27266411121358
STARLINK-36143          
1 67056U 25294AC  26068.31637605  .00017745  00000+0  65286-3 0  9992
2 67056  43.0039  40.0490 0001542 252.6337 107.4346 15.27577073 14747
